NORAD_CAT_ID,OBJECT_NAME,OBJECT_TYPE,EPOCH,MEAN_MOTION,ECCENTRICITY,INCLINATION,RA_OF_ASC_NODE,ARG_OF_PERICENTER,MEAN_ANOMALY,BSTAR,MEAN_MOTION_DOT,MEAN_MOTION_DDOT,TLE_LINE0,TLE_LINE1,TLE_LINE2,SEMIMAJOR_AXIS,PERIOD,APOGEE,PERIGEE,DECAYED
53901.0,STARLINK-5024,PAYLOAD,2023-09-02 23:32:35,15.08841232,0.0001313,53.2174,128.1658,101.9164,258.1975,8.9906e-05,1.143e-05,0.0,0 STARLINK-5024,1 53901U 22119R   23245.98096642  .00001143  00000-0  89906-4 0  9998,2 53901  53.2174 128.1658 0001313 101.9164 258.1975 15.08841232 52573,6917.877,95.437,540.65,538.833,0.0
53901.0,STARLINK-5024,PAYLOAD,2023-09-03 09:04:55,15.08832604,0.0001926,53.2193,126.3769,83.613,276.5081,2.6789e-05,1.38e-06,0.0,0 STARLINK-5024,1 53901U 22119R   23246.37841593  .00000138  00000-0  26789-4 0  9998,2 53901  53.2193 126.3769 0001926  83.6130 276.5081 15.08832604 52638,6917.903,95.438,541.1,538.436,0.0
53901.0,STARLINK-5024,PAYLOAD,2023-09-04 00:58:46,15.08841868,0.0001211,53.2191,123.4024,70.3637,289.7486,6.8575e-06,-1.79e-06,0.0,0 STARLINK-5024,1 53901U 22119R   23247.04081143 -.00000179  00000-0  68575-5 0  9996,2 53901  53.2191 123.4024 0001211  70.3637 289.7486 15.08841868 52738,6917.875,95.437,540.577,538.902,0.0
53901.0,STARLINK-5024,PAYLOAD,2023-09-05 00:49:33,15.08843695,0.0001466,53.2184,118.944,86.2946,273.8213,1.1319e-06,-2.7e-06,0.0,0 STARLINK-5024,1 53901U 22119R   23248.03441324 -.00000270  00000-0  11319-5 0  9993,2 53901  53.2184 118.9440 0001466  86.2946 273.8213 15.08843695 53308,6917.869,95.437,540.748,538.72,0.0
53901.0,STARLINK-5024,PAYLOAD,2023-09-05 21:29:33,15.08842604,0.0001382,53.2176,115.0788,89.7639,270.3511,0.00015396,2.163e-05,0.0,0 STARLINK-5024,1 53901U 22119R   23248.89552986  .00002163  00000-0  15396-3 0  9993,2 53901  53.2176 115.0788 0001382  89.7639 270.3511 15.08842604 53016,6917.872,95.437,540.693,538.781,0.0
53901.0,STARLINK-5024,PAYLOAD,2023-09-06 21:20:20,15.08846249,0.0001294,53.2176,110.6184,85.6631,274.4509,7.0908e-05,8.41e-06,0.0,0 STARLINK-5024,1 53901U 22119R   23249.88912857  .00000841  00000-0  70908-4 0  9992,2 53901  53.2176 110.6184 0001294  85.6631 274.4509 15.08846249 53589,6917.861,95.437,540.621,538.831,0.0
53901.0,STARLINK-5024,PAYLOAD,2023-09-07 00:31:06,15.08848889,0.0001309,53.217,110.0239,83.1297,276.9844,9.0219e-05,1.149e-05,0.0,0 STARLINK-5024,1 53901U 22119R   23250.02160576  .00001149  00000-0  90219-4 0  9992,2 53901  53.2170 110.0239 0001309  83.1297 276.9844 15.08848889 53183,6917.853,95.437,540.624,538.813,0.0
53901.0,STARLINK-5024,PAYLOAD,2023-09-08 00:21:54,15.08839428,0.0001659,53.2178,105.5627,88.9628,271.1554,2.3518e-05,8.6e-07,0.0,0 STARLINK-5024,1 53901U 22119R   23251.01521247  .00000086  00000-0  23518-4 0  9995,2 53901  53.2178 105.5627 0001659  88.9628 271.1554 15.08839428 53331,6917.882,95.438,540.895,538.599,0.0
53901.0,STARLINK-5024,PAYLOAD,2023-09-08 21:01:55,15.08844474,0.0001239,53.2163,101.6975,84.3698,275.7435,-3.8004e-05,-8.93e-06,0.0,0 STARLINK-5024,1 53901U 22119R   23251.87633231 -.00000893  00000-0 -38004-4 0  9990,2 53901  53.2163 101.6975 0001239  84.3698 275.7435 15.08844474 53884,6917.867,95.437,540.589,538.875,0.0
53901.0,STARLINK-5024,PAYLOAD,2023-09-09 06:34:13,15.08841167,0.0001227,53.2159,99.9131,82.2032,277.9099,-3.4147e-06,-3.42e-06,0.0,0 STARLINK-5024,1 53901U 22119R   23252.27377271 -.00000342  00000-0 -34147-5 0  9998,2 53901  53.2159  99.9131 0001227  82.2032 277.9099 15.08841167 53525,6917.877,95.437,540.591,538.893,0.0
53901.0,STARLINK-5024,PAYLOAD,2023-09-10 00:03:28,15.08839204,0.0001218,53.2163,96.6421,89.8141,270.2991,0.00018087,2.592e-05,0.0,0 STARLINK-5024,1 53901U 22119R   23253.00241028  .00002592  00000-0  18087-3 0  9990,2 53901  53.2163  96.6421 0001218  89.8141 270.2991 15.08839204 54055,6917.883,95.438,540.59,538.905,0.0
53901.0,STARLINK-5024,PAYLOAD,2023-09-10 19:08:06,15.08835512,0.0001189,53.2161,93.0737,78.7411,281.3714,5.3701e-05,5.67e-06,0.0,0 STARLINK-5024,1 53901U 22119R   23253.79729925  .00000567  00000-0  53701-4 0  9996,2 53901  53.2161  93.0737 0001189  78.7411 281.3714 15.08835512 53758,6917.894,95.438,540.582,538.937,0.0
53901.0,STARLINK-5024,PAYLOAD,2023-09-11 06:15:48,15.08838354,0.000122,53.2173,90.9918,85.6806,274.4325,2.5163e-05,1.13e-06,0.0,0 STARLINK-5024,1 53901U 22119R   23254.26097756  .00000113  00000-0  25163-4 0  9997,2 53901  53.2173  90.9918 0001220  85.6806 274.4325 15.08838354 54242,6917.885,95.438,540.594,538.906,0.0
53901.0,STARLINK-5024,PAYLOAD,2023-09-11 23:45:02,15.0884674,0.0001245,53.2175,87.7211,89.9795,270.134,4.9438e-05,4.99e-06,0.0,0 STARLINK-5024,1 53901U 22119R   23254.98961375  .00000499  00000-0  49438-4 0  9991,2 53901  53.2175  87.7211 0001245  89.9795 270.1340 15.08846740 53938,6917.86,95.437,540.586,538.864,0.0
53901.0,STARLINK-5024,PAYLOAD,2023-09-12 06:06:35,15.08838531,0.0001116,53.2171,86.5311,83.6277,276.4842,5.0729e-05,5.2e-06,0.0,0 STARLINK-5024,1 53901U 22119R   23255.25457934  .00000520  00000-0  50729-4 0  9993,2 53901  53.2171  86.5311 0001116  83.6277 276.4842 15.08838531 53974,6917.885,95.438,540.522,538.978,0.0
53901.0,STARLINK-5024,PAYLOAD,2023-09-12 12:28:08,15.08835495,0.0001147,53.217,85.3425,88.4062,271.7062,8.3837e-05,1.047e-05,0.0,0 STARLINK-5024,1 53901U 22119R   23255.51954117  .00001047  00000-0  83837-4 0  9998,2 53901  53.2170  85.3425 0001147  88.4062 271.7062 15.08835495 54435,6917.894,95.438,540.553,538.966,0.0
53901.0,STARLINK-5024,PAYLOAD,2023-09-12 20:25:03,15.08842137,0.0001294,53.2178,83.8569,92.3791,267.7349,9.1313e-05,1.166e-05,0.0,0 STARLINK-5024,1 53901U 22119R   23255.85073848  .00001166  00000-0  91313-4 0  9998,2 53901  53.2178  83.8569 0001294  92.3791 267.7349 15.08842137 54480,6917.874,95.437,540.634,538.844,0.0
53901.0,STARLINK-5024,PAYLOAD,2023-09-13 12:18:54,15.08848639,0.0001282,53.2174,80.8818,88.3476,271.7663,0.00015513,2.182e-05,0.0,0 STARLINK-5024,1 53901U 22119R   23256.51313167  .00002182  00000-0  15513-3 0  9999,2 53901  53.2174  80.8818 0001282  88.3476 271.7663 15.08848639 54580,6917.854,95.437,540.606,538.832,0.0
53901.0,STARLINK-5024,PAYLOAD,2023-09-13 18:40:26,15.08857649,0.0001285,53.2171,79.6926,116.6754,243.437,0.000182,2.611e-05,0.0,0 STARLINK-5024,1 53901U 22119R   23256.77808404  .00002611  00000-0  18200-3 0  9993,2 53901  53.2171  79.6926 0001285 116.6754 243.4370 15.08857649 54201,6917.826,95.436,540.58,538.803,0.0
53901.0,STARLINK-5024,PAYLOAD,2023-09-14 12:09:42,15.08839948,0.0001621,53.2165,76.4231,89.7528,270.365,9.751e-05,1.264e-05,0.0,0 STARLINK-5024,1 53901U 22119R   23257.50673858  .00001264  00000-0  97510-4 0  9993,2 53901  53.2165  76.4231 0001621  89.7528 270.3650 15.08839948 54731,6917.881,95.438,540.867,538.624,0.0
53901.0,STARLINK-5024,PAYLOAD,2023-09-14 18:31:15,15.08834733,0.0001151,53.2165,75.2318,89.7499,270.3625,-5.1945e-05,-1.114e-05,0.0,0 STARLINK-5024,1 53901U 22119R   23257.77170186 -.00001114  00000-0 -51945-4 0  9996,2 53901  53.2165  75.2318 0001151  89.7499 270.3625 15.08834733 54356,6917.896,95.438,540.558,538.965,0.0
53901.0,STARLINK-5024,PAYLOAD,2023-09-15 12:00:29,15.0883773,0.0001108,53.2165,71.9587,92.9857,267.1262,-4.5303e-06,-3.6e-06,0.0,0 STARLINK-5024,1 53901U 22119R   23258.50034140 -.00000360  00000-0 -45303-5 0  9991,2 53901  53.2165  71.9587 0001108  92.9857 267.1262 15.08837730 54882,6917.887,95.438,540.519,538.986,0.0
53901.0,STARLINK-5024,PAYLOAD,2023-09-15 18:22:01,15.08845336,0.0001138,53.2166,70.7709,89.9466,270.1657,0.0001126,1.505e-05,0.0,0 STARLINK-5024,1 53901U 22119R   23258.76529776  .00001505  00000-0  11260-3 0  9996,2 53901  53.2166  70.7709 0001138  89.9466 270.1657 15.08845336 54503,6917.864,95.437,540.516,538.942,0.0
53901.0,STARLINK-5024,PAYLOAD,2023-09-16 03:54:21,15.08834638,0.0001814,53.217,68.9877,80.8885,279.2312,9.0438e-05,1.151e-05,0.0,0 STARLINK-5024,1 53901U 22119R   23259.16274553  .00001151  00000-0  90438-4 0  9993,2 53901  53.2170  68.9877 0001814  80.8885 279.2312 15.08834638 54566,6917.897,95.438,541.017,538.507,0.0
53901.0,STARLINK-5024,PAYLOAD,2023-09-16 11:51:16,15.08834059,0.0001192,53.2174,67.5011,80.626,279.4867,0.00017471,2.493e-05,0.0,0 STARLINK-5024,1 53901U 22119R   23259.49394510  .00002493  00000-0  17471-3 0  9990,2 53901  53.2174  67.5011 0001192  80.6260 279.4867 15.08834059 55036,6917.899,95.438,540.588,538.939,0.0
53901.0,STARLINK-5024,PAYLOAD,2023-09-16 22:58:58,15.08851873,0.0001189,53.2172,65.4189,85.5686,274.5442,0.00039633,6.027e-05,0.0,0 STARLINK-5024,1 53901U 22119R   23259.95761904  .00006027  00000-0  39633-3 0  9997,2 53901  53.2172  65.4189 0001189  85.5686 274.5442 15.08851873 54687,6917.844,95.437,540.532,538.887,0.0
53901.0,STARLINK-5024,PAYLOAD,2023-09-17 18:03:35,15.08850977,0.0001042,53.2173,61.8497,78.1348,281.9761,0.00023503,3.456e-05,0.0,0 STARLINK-5024,1 53901U 22119R   23260.75249661  .00003456  00000-0  23503-3 0  9990,2 53901  53.2173  61.8497 0001042  78.1348 281.9761 15.08850977 54805,6917.847,95.437,540.433,538.991,0.0
53901.0,STARLINK-5024,PAYLOAD,2023-09-18 03:35:55,15.08838641,0.0001532,53.2176,60.0642,82.6592,277.4574,3.7286e-05,3.05e-06,0.0,0 STARLINK-5024,1 53901U 22119R   23261.14994248  .00000305  00000-0  37286-4 0  9996,2 53901  53.2176  60.0642 0001532  82.6592 277.4574 15.08838641 54868,6917.885,95.438,540.809,538.69,0.0
53901.0,STARLINK-5024,PAYLOAD,2023-09-18 19:29:46,15.08845681,0.0001554,53.2185,57.0893,84.19,275.927,0.00042413,6.47e-05,0.0,0 STARLINK-5024,1 53901U 22119R   23261.81234174  .00006470  00000-0  42413-3 0  9991,2 53901  53.2185  57.0893 0001554  84.1900 275.9270 15.08845681 55382,6917.863,95.437,540.803,538.653,0.0
53901.0,STARLINK-5024,PAYLOAD,2023-09-19 09:48:14,15.08841077,0.0001243,53.2175,54.4158,91.3174,268.7961,0.0001413,1.962e-05,0.0,0 STARLINK-5024,1 53901U 22119R   23262.40850234  .00001962  00000-0  14130-3 0  9994,2 53901  53.2175  54.4158 0001243  91.3174 268.7961 15.08841077 55050,6917.877,95.437,540.602,538.882,0.0
